ONEWEB-0574             
1 56063U 23043T   23280.89472913  .00000030  00000+0  42142-4 0  9999
2 56063  87.9189  79.7388 0001548  87.5929 272.5382 13.21825629 28372
ONEWEB-0575             
1 56064U 23043U   23281.58334491 -.01368520  00000+0 -43745+0 0  9994
2 56064  87.1819  67.2772 0002293  81.2195  69.9211 14.42999444 30236
ONEWEB-0576             
1 56065U 23043V   23281.58334491 -.01380710  00000+0 -45067+0 0  9999
2 56065  87.1909  67.2132 0003684  90.3002 118.2393 14.41993121 30234
ONEWEB-0577             
1 56066U 23043W   23281.58334491 -.01394047  00000+0 -43605+0 0  9994
2 56066  87.1775  67.3437 0002969 135.4094 183.6061 14.44127413 30258
ONEWEB-0578             
1 56067U 23043X   23280.95779962  .00000797  00000+0  18986-2 0  9991
2 56067  87.9185  79.7205 0001525 105.2325 254.8977 13.21823641 29256
ONEWEB-0579             
1 56068U 23043Y   23280.87371292  .00000021  00000+0  19935-4 0  9994
2 56068  87.9185  79.7415 0002231  86.2478 273.8911 13.21822752 28342
ONEWEB-0581             
1 56069U 23043Z   23280.91667824 -.01329668  00000+0 -42330+0 0  9993
2 56069  87.1851  67.4719 0003927  81.4720 215.3751 14.43668681  5810
ONEWEB-0609             
1 56070U 23043AA  23281.44673571 -.00000218  00000+0 -61345-3 0  9997
2 56070  87.8915  94.8949 0001737  89.7180 270.4150 13.15552325 28137
